SAUDISAT 1C (SO-50)     
1 27607U 02058C   26068.61742404  .00002222  00000+0  27919-3 0  9995
2 27607  64.5524  76.9957 0075248 280.7497  78.5144 14.82783142249695
STARLINK-34644          
1 64812U 25150Y   26068.62047919  .00001725  00000+0  15232-3 0  9994
2 64812  70.0020 134.6954 0003351 269.5227  90.5548 14.98332521 36502
